[{"OBJECT_NAME":"STARLINK-36406","OBJECT_ID":"2026-036V","EPOCH":"2026-03-07T06:00:00.999648","MEAN_MOTION":15.82061128,"ECCENTRICITY":0.00024812,"INCLINATION":42.9996,"RA_OF_ASC_NODE":264.5553,"ARG_OF_PERICENTER":276.9054,"MEAN_ANOMALY":166.3904,"EPHEMERIS_TYPE":0,"CLASSIFICATION_TYPE":"U","NORAD_CAT_ID":67923,"ELEMENT_SET_NO":999,"REV_AT_EPOCH":325,"BSTAR":-0.00059467943,"MEAN_MOTION_DOT":-0.00124259,"MEAN_MOTION_DDOT":0},{"OBJECT_NAME":"STARLINK-36714","OBJECT_ID":"2026-036W","EPOCH":"2026-03-07T06:00:00.999648","MEAN_MOTION":15.82017282,"ECCENTRICITY":0.00021944,"INCLINATION":42.9995,"RA_OF_ASC_NODE":264.5453,"ARG_OF_PERICENTER":263.4299,"MEAN_ANOMALY":184.1415,"EPHEMERIS_TYPE":0,"CLASSIFICATION_TYPE":"U","NORAD_CAT_ID":67924,"ELEMENT_SET_NO":999,"REV_AT_EPOCH":325,"BSTAR":-0.00023320979,"MEAN_MOTION_DOT":-0.00049369,"MEAN_MOTION_DDOT":0},{"OBJECT_NAME":"STARLINK-36726","OBJECT_ID":"2026-036X","EPOCH":"2026-03-07T06:00:00.999648","MEAN_MOTION":15.8202678,"ECCENTRICITY":0.0001999,"INCLINATION":42.9996,"RA_OF_ASC_NODE":264.5344,"ARG_OF_PERICENTER":263.5343,"MEAN_ANOMALY":188.2819,"EPHEMERIS_TYPE":0,"CLASSIFICATION_TYPE":"U","NORAD_CAT_ID":67925,"ELEMENT_SET_NO":999,"REV_AT_EPOCH":325,"BSTAR":-0.00018423042,"MEAN_MOTION_DOT":-0.00039173,"MEAN_MOTION_DDOT":0},{"OBJECT_NAME":"STARLINK-36758","OBJECT_ID":"2026-036Y","EPOCH":"2026-03-07T06:00:00.999648","MEAN_MOTION":15.8200984,"ECCENTRICITY":0.0001632,"INCLINATION":42.9997,"RA_OF_ASC_NODE":264.5235,"ARG_OF_PERICENTER":296.5294,"MEAN_ANOMALY":159.5634,"EPHEMERIS_TYPE":0,"CLASSIFICATION_TYPE":"U","NORAD_CAT_ID":67926,"ELEMENT_SET_NO":999,"REV_AT_EPOCH":325,"BSTAR":-6.8361419e-5,"MEAN_MOTION_DOT":-0.00014899,"MEAN_MOTION_DDOT":0},{"OBJECT_NAME":"STARLINK-36728","OBJECT_ID":"2026-036Z","EPOCH":"2026-03-07T06:00:00.999648","MEAN_MOTION":15.82042205,"ECCENTRICITY":0.00022267,"INCLINATION":42.9998,"RA_OF_ASC_NODE":264.5014,"ARG_OF_PERICENTER":266.6614,"MEAN_ANOMALY":197.9644,"EPHEMERIS_TYPE":0,"CLASSIFICATION_TYPE":"U","NORAD_CAT_ID":67927,"ELEMENT_SET_NO":999,"REV_AT_EPOCH":325,"BSTAR":-0.00026366348,"MEAN_MOTION_DOT":-0.0005577,"MEAN_MOTION_DDOT":0},{"OBJECT_NAME":"STARLINK-36771","OBJECT_ID":"2026-036AA","EPOCH":"2026-03-07T06:00:00.999648","MEAN_MOTION":15.82010116,"ECCENTRICITY":0.00021147,"INCLINATION":42.9997,"RA_OF_ASC_NODE":264.5119,"ARG_OF_PERICENTER":256.1182,"MEAN_ANOMALY":204.2495,"EPHEMERIS_TYPE":0,"CLASSIFICATION_TYPE":"U","NORAD_CAT_ID":67928,"ELEMENT_SET_NO":999,"REV_AT_EPOCH":325,"BSTAR":-7.8634552e-5,"MEAN_MOTION_DOT":-0.00017056,"MEAN_MOTION_DDOT":0},{"OBJECT_NAME":"STARLINK-36809","OBJECT_ID":"2026-036AB","EPOCH":"2026-03-07T06:00:00.999648","MEAN_MOTION":15.82008902,"ECCENTRICITY":0.00024194,"INCLINATION":42.9995,"RA_OF_ASC_NODE":264.4904,"ARG_OF_PERICENTER":243.5947,"MEAN_ANOMALY":225.3338,"EPHEMERIS_TYPE":0,"CLASSIFICATION_TYPE":"U","NORAD_CAT_ID":67929,"ELEMENT_SET_NO":999,"REV_AT_EPOCH":325,"BSTAR":-0.00013065035,"MEAN_MOTION_DOT":-0.00027951,"MEAN_MOTION_DDOT":0},{"OBJECT_NAME":"STARLINK-36865","OBJECT_ID":"2026-036AC","EPOCH":"2026-03-07T06:00:00.999648","MEAN_MOTION":15.82029175,"ECCENTRICITY":0.00021732,"INCLINATION":42.9997,"RA_OF_ASC_NODE":264.4689,"ARG_OF_PERICENTER":245.697,"MEAN_ANOMALY":231.7666,"EPHEMERIS_TYPE":0,"CLASSIFICATION_TYPE":"U","NORAD_CAT_ID":67930,"ELEMENT_SET_NO":999,"REV_AT_EPOCH":325,"BSTAR":-0.00028419249,"MEAN_MOTION_DOT":-0.00060005,"MEAN_MOTION_DDOT":0},{"OBJECT_NAME":"STARLINK-36781","OBJECT_ID":"2026-036AD","EPOCH":"2026-03-07T06:00:00.999648","MEAN_MOTION":15.82016823,"ECCENTRICITY":0.00019371,"INCLINATION":42.9996,"RA_OF_ASC_NODE":264.4799,"ARG_OF_PERICENTER":273.5072,"MEAN_ANOMALY":199.7016,"EPHEMERIS_TYPE":0,"CLASSIFICATION_TYPE":"U","NORAD_CAT_ID":67931,"ELEMENT_SET_NO":999,"REV_AT_EPOCH":325,"BSTAR":-0.00027380434,"MEAN_MOTION_DOT":-0.00057809,"MEAN_MOTION_DDOT":0},{"OBJECT_NAME":"STARLINK-36301","OBJECT_ID":"2026-037A","EPOCH":"2026-03-07T06:00:00.999648","MEAN_MOTION":15.86932755,"ECCENTRICITY":0.00015284,"INCLINATION":42.9994,"RA_OF_ASC_NODE":213.5616,"ARG_OF_PERICENTER":271.8343,"MEAN_ANOMALY":114.7491,"EPHEMERIS_TYPE":0,"CLASSIFICATION_TYPE":"U","NORAD_CAT_ID":67932,"ELEMENT_SET_NO":999,"REV_AT_EPOCH":271,"BSTAR":-0.0063218628,"MEAN_MOTION_DOT":-0.01492556,"MEAN_MOTION_DDOT":0},{"OBJECT_NAME":"STARLINK-36852","OBJECT_ID":"2026-037B","EPOCH":"2026-03-07T06:00:00.999648","MEAN_MOTION":15.8711087,"ECCENTRICITY":0.0001525,"INCLINATION":42.9997,"RA_OF_ASC_NODE":213.5535,"ARG_OF_PERICENTER":273.5533,"MEAN_ANOMALY":116.2434,"EPHEMERIS_TYPE":0,"CLASSIFICATION_TYPE":"U","NORAD_CAT_ID":67933,"ELEMENT_SET_NO":999,"REV_AT_EPOCH":280,"BSTAR":-0.0062223452,"MEAN_MOTION_DOT":-0.01453537,"MEAN_MOTION_DDOT":0},{"OBJECT_NAME":"STARLINK-36861","OBJECT_ID":"2026-037C","EPOCH":"2026-03-07T06:00:00.999648","MEAN_MOTION":15.87223188,"ECCENTRICITY":0.00015919,"INCLINATION":42.9996,"RA_OF_ASC_NODE":213.5444,"ARG_OF_PERICENTER":273.7469,"MEAN_ANOMALY":119.7107,"EPHEMERIS_TYPE":0,"CLASSIFICATION_TYPE":"U","NORAD_CAT_ID":67934,"ELEMENT_SET_NO":999,"REV_AT_EPOCH":280,"BSTAR":-0.0062049929,"MEAN_MOTION_DOT":-0.01457156,"MEAN_MOTION_DDOT":0},{"OBJECT_NAME":"STARLINK-36860","OBJECT_ID":"2026-037D","EPOCH":"2026-03-07T06:00:00.999648","MEAN_MOTION":15.87324978,"ECCENTRICITY":0.00016178,"INCLINATION":42.9994,"RA_OF_ASC_NODE":213.5353,"ARG_OF_PERICENTER":276.545,"MEAN_ANOMALY":120.6333,"EPHEMERIS_TYPE":0,"CLASSIFICATION_TYPE":"U","NORAD_CAT_ID":67935,"ELEMENT_SET_NO":999,"REV_AT_EPOCH":280,"BSTAR":-0.0061839845,"MEAN_MOTION_DOT":-0.01459336,"MEAN_MOTION_DDOT":0},{"OBJECT_NAME":"STARLINK-36848","OBJECT_ID":"2026-037E","EPOCH":"2026-03-07T06:00:00.999648","MEAN_MOTION":15.87557458,"ECCENTRICITY":0.00014339,"INCLINATION":42.9995,"RA_OF_ASC_NODE":213.5164,"ARG_OF_PERICENTER":274.8918,"MEAN_ANOMALY":129.5118,"EPHEMERIS_TYPE":0,"CLASSIFICATION_TYPE":"U","NORAD_CAT_ID":67936,"ELEMENT_SET_NO":999,"REV_AT_EPOCH":280,"BSTAR":-0.0061605045,"MEAN_MOTION_DOT":-0.01499621,"MEAN_MOTION_DDOT":0},{"OBJECT_NAME":"STARLINK-36370","OBJECT_ID":"2026-037F","EPOCH":"2026-03-07T06:00:00.999648","MEAN_MOTION":15.87427989,"ECCENTRICITY":0.00017107,"INCLINATION":42.9997,"RA_OF_ASC_NODE":213.5261,"ARG_OF_PERICENTER":274.6587,"MEAN_ANOMALY":126.2742,"EPHEMERIS_TYPE":0,"CLASSIFICATION_TYPE":"U","NORAD_CAT_ID":67937,"ELEMENT_SET_NO":999,"REV_AT_EPOCH":280,"BSTAR":-0.0062319103,"MEAN_MOTION_DOT":-0.01506523,"MEAN_MOTION_DDOT":0},{"OBJECT_NAME":"STARLINK-36371","OBJECT_ID":"2026-037G","EPOCH":"2026-03-07T06:00:00.999648","MEAN_MOTION":15.87706707,"ECCENTRICITY":0.00016114,"INCLINATION":42.9996,"RA_OF_ASC_NODE":213.5078,"ARG_OF_PERICENTER":275.5363,"MEAN_ANOMALY":132.186,"EPHEMERIS_TYPE":0,"CLASSIFICATION_TYPE":"U","NORAD_CAT_ID":67938,"ELEMENT_SET_NO":999,"REV_AT_EPOCH":280,"BSTAR":-0.0061234625,"MEAN_MOTION_DOT":-0.01471164,"MEAN_MOTION_DDOT":0}]
